{
  "type": "FeatureCollection",
  "features": [
    {
      "type": "Feature",
      "properties": {
        "norad_id": 32376,
        "name": "COSMO-SKYMED 2",
        "group": "resource",
        "lat": -63.91673647649605,
        "lon": -21.91879883357742,
        "alt_km": 630.6646445686847,
        "timestamp": "2025-12-19T06:59:43.560647+00:00",
        "meta_object_name": "COSMO-SKYMED 2",
        "meta_object_id": "2007-059A",
        "meta_epoch": "2025-12-18T23:24:44.476992",
        "meta_mean_motion": 14.82150018,
        "meta_eccentricity": 0.0001352,
        "meta_inclination": 97.8803,
        "meta_ra_of_asc_node": 174.2054,
        "meta_arg_of_pericenter": 82.9504,
        "meta_mean_anomaly": 277.1863,
        "meta_ephemeris_type": 0,
        "meta_classification_type": "U",
        "meta_norad_cat_id": 32376,
        "meta_element_set_no": 999,
        "meta_rev_at_epoch": 97530,
        "meta_bstar": 5.9164534e-05,
        "meta_mean_motion_dot": 4.19e-06,
        "meta_mean_motion_ddot": 0,
        "tle_line1": "1 32376U 07059A   25352.97551478  .00000419  00000+0  59165-4 0  9998",
        "tle_line2": "2 32376  97.8803 174.2054 0001352  82.9504 277.1863 14.82150018975308"
      },
      "geometry": {
        "type": "Point",
        "coordinates": [
          -21.91879883357742,
          -63.91673647649605
        ]
      }
    },
    {
      "type": "Feature",
      "properties": {
        "norad_id": 32382,
        "name": "RADARSAT-2",
        "group": "resource",
        "lat": 44.76085896558473,
        "lon": -10.823246407442275,
        "alt_km": 787.3146617899574,
        "timestamp": "2025-12-19T06:59:43.560657+00:00",
        "meta_object_name": "RADARSAT-2",
        "meta_object_id": "2007-061A",
        "meta_epoch": "2025-12-19T00:03:59.869728",
        "meta_mean_motion": 14.29983242,
        "meta_eccentricity": 0.00010953,
        "meta_inclination": 98.5792,
        "meta_ra_of_asc_node": 357.5022,
        "meta_arg_of_pericenter": 84.6259,
        "meta_mean_anomaly": 275.5048,
        "meta_ephemeris_type": 0,
        "meta_classification_type": "U",
        "meta_norad_cat_id": 32382,
        "meta_element_set_no": 999,
        "meta_rev_at_epoch": 94020,
        "meta_bstar": 1.7519656e-05,
        "meta_mean_motion_dot": 2e-08,
        "meta_mean_motion_ddot": 0,
        "tle_line1": "1 32382U 07061A   25353.00277627  .00000002  00000+0  17520-4 0  9991",
        "tle_line2": "2 32382  98.5792 357.5022 0001095  84.6259 275.5048 14.29983242940203"
      },
      "geometry": {
        "type": "Point",
        "coordinates": [
          -10.823246407442275,
          44.76085896558473
        ]
      }
    },
    {
      "type": "Feature",
      "properties": {
        "norad_id": 32783,
        "name": "CARTOSAT-2A",
        "group": "resource",
        "lat": -50.45631706402242,
        "lon": 52.45838983266312,
        "alt_km": 632.9847709473352,
        "timestamp": "2025-12-19T06:59:43.560668+00:00",
        "meta_object_name": "CARTOSAT-2A",
        "meta_object_id": "2008-021A",
        "meta_epoch": "2025-12-18T23:06:24.509088",
        "meta_mean_motion": 14.78947064,
        "meta_eccentricity": 0.00113958,
        "meta_inclination": 97.7927,
        "meta_ra_of_asc_node": 42.5922,
        "meta_arg_of_pericenter": 344.4702,
        "meta_mean_anomaly": 15.6159,
        "meta_ephemeris_type": 0,
        "meta_classification_type": "U",
        "meta_norad_cat_id": 32783,
        "meta_element_set_no": 999,
        "meta_rev_at_epoch": 95216,
        "meta_bstar": 7.6600661e-05,
        "meta_mean_motion_dot": 5.15e-06,
        "meta_mean_motion_ddot": 0,
        "tle_line1": "1 32783U 08021A   25352.96278367  .00000515  00000+0  76601-4 0  9993",
        "tle_line2": "2 32783  97.7927  42.5922 0011395 344.4702  15.6159 14.78947064952163"
      },
      "geometry": {
        "type": "Point",
        "coordinates": [
          52.45838983266312,
          -50.45631706402242
        ]
      }
    },
    {
      "type": "Feature",
      "properties": {
        "norad_id": 33320,
        "name": "HUANJING 1A (HJ-1A)",
        "group": "resource",
        "lat": -78.04846076615918,
        "lon": 20.756643725127745,
        "alt_km": 626.9453516137401,
        "timestamp": "2025-12-19T06:59:43.560679+00:00",
        "meta_object_name": "HUANJING 1A (HJ-1A)",
        "meta_object_id": "2008-041A",
        "meta_epoch": "2025-12-18T23:15:50.508576",
        "meta_mean_motion": 14.83412048,
        "meta_eccentricity": 0.00197139,
        "meta_inclination": 97.6535,
        "meta_ra_of_asc_node": 341.0078,
        "meta_arg_of_pericenter": 14.6493,
        "meta_mean_anomaly": 345.5289,
        "meta_ephemeris_type": 0,
        "meta_classification_type": "U",
        "meta_norad_cat_id": 33320,
        "meta_element_set_no": 999,
        "meta_rev_at_epoch": 93168,
        "meta_bstar": 8.9649061e-05,
        "meta_mean_motion_dot": 6.87e-06,
        "meta_mean_motion_ddot": 0,
        "tle_line1": "1 33320U 08041A   25352.96933459  .00000687  00000+0  89649-4 0  9999",
        "tle_line2": "2 33320  97.6535 341.0078 0019713  14.6493 345.5289 14.83412048931687"
      },
      "geometry": {
        "type": "Point",
        "coordinates": [
          20.756643725127745,
          -78.04846076615918
        ]
      }
    },
    {
      "type": "Feature",
      "properties": {
        "norad_id": 33321,
        "name": "HUANJING 1B (HJ-1B)",
        "group": "resource",
        "lat": 51.862850763995176,
        "lon": 174.83945031465072,
        "alt_km": 607.4906214857001,
        "timestamp": "2025-12-19T06:59:43.560690+00:00",
        "meta_object_name": "HUANJING 1B (HJ-1B)",
        "meta_object_id": "2008-041B",
        "meta_epoch": "2025-12-18T23:56:53.642976",
        "meta_mean_motion": 14.82836241,
        "meta_eccentricity": 0.00380512,
        "meta_inclination": 97.6395,
        "meta_ra_of_asc_node": 344.7158,
        "meta_arg_of_pericenter": 55.867,
        "meta_mean_anomaly": 304.6144,
        "meta_ephemeris_type": 0,
        "meta_classification_type": "U",
        "meta_norad_cat_id": 33321,
        "meta_element_set_no": 999,
        "meta_rev_at_epoch": 93170,
        "meta_bstar": 0.00011338759,
        "meta_mean_motion_dot": 8.78e-06,
        "meta_mean_motion_ddot": 0,
        "tle_line1": "1 33321U 08041B   25352.99784309  .00000878  00000+0  11339-3 0  9993",
        "tle_line2": "2 33321  97.6395 344.7158 0038051  55.8670 304.6144 14.82836241931704"
      },
      "geometry": {
        "type": "Point",
        "coordinates": [
          174.83945031465072,
          51.862850763995176
        ]
      }
    },
    {
      "type": "Feature",
      "properties": {
        "norad_id": 33331,
        "name": "GEOEYE 1",
        "group": "resource",
        "lat": 46.785204481724776,
        "lon": 55.74413462149369,
        "alt_km": 675.6072307456498,
        "timestamp": "2025-12-19T06:59:43.560701+00:00",
        "meta_object_name": "GEOEYE 1",
        "meta_object_id": "2008-042A",
        "meta_epoch": "2025-12-18T20:56:32.932032",
        "meta_mean_motion": 14.64708427,
        "meta_eccentricity": 0.0002787,
        "meta_inclination": 98.1247,
        "meta_ra_of_asc_node": 64.0762,
        "meta_arg_of_pericenter": 258.403,
        "meta_mean_anomaly": 101.686,
        "meta_ephemeris_type": 0,
        "meta_classification_type": "U",
        "meta_norad_cat_id": 33331,
        "meta_element_set_no": 999,
        "meta_rev_at_epoch": 92375,
        "meta_bstar": 9.6515281e-05,
        "meta_mean_motion_dot": 4.66e-06,
        "meta_mean_motion_ddot": 0,
        "tle_line1": "1 33331U 08042A   25352.87260338  .00000466  00000+0  96515-4 0  9996",
        "tle_line2": "2 33331  98.1247  64.0762 0002787 258.4030 101.6860 14.64708427923758"
      },
      "geometry": {
        "type": "Point",
        "coordinates": [
          55.74413462149369,
          46.785204481724776
        ]
      }
    },
    {
      "type": "Feature",
      "properties": {
        "norad_id": 33396,
        "name": "THEOS",
        "group": "resource",
        "lat": -65.68806843673345,
        "lon": 70.72689197711291,
        "alt_km": 833.0301916775179,
        "timestamp": "2025-12-19T06:59:43.560711+00:00",
        "meta_object_name": "THEOS",
        "meta_object_id": "2008-049A",
        "meta_epoch": "2025-12-18T22:51:23.002848",
        "meta_mean_motion": 14.20096317,
        "meta_eccentricity": 0.00011822,
        "meta_inclination": 98.5865,
        "meta_ra_of_asc_node": 50.8591,
        "meta_arg_of_pericenter": 93.4955,
        "meta_mean_anomaly": 266.6357,
        "meta_ephemeris_type": 0,
        "meta_classification_type": "U",
        "meta_norad_cat_id": 33396,
        "meta_element_set_no": 999,
        "meta_rev_at_epoch": 89238,
        "meta_bstar": -7.1479828e-05,
        "meta_mean_motion_dot": -1.95e-06,
        "meta_mean_motion_ddot": 0,
        "tle_line1": "1 33396U 08049A   25352.95234957 -.00000195  00000+0 -71480-4 0  9996",
        "tle_line2": "2 33396  98.5865  50.8591 0001182  93.4955 266.6357 14.20096317892380"
      },
      "geometry": {
        "type": "Point",
        "coordinates": [
          70.72689197711291,
          -65.68806843673345
        ]
      }
    }
  ]
}